STARLINK-2170           
1 47753U 21017AH  22262.79922874  .00002172  00000+0  16464-3 0  9994
2 47753  53.0532 138.9209 0001459  71.7097 288.4051 15.06406484 86828
STARLINK-2171           
1 47754U 21017AJ  22263.03513278  .00000652  00000+0  62644-4 0  9990
2 47754  53.0532 137.8601 0001579  71.4390 288.6770 15.06400206 86184
STARLINK-2174           
1 47756U 21017AL  22263.03144728  .00001664  00000+0  13058-3 0  9990
2 47756  53.0546 137.8794 0001664  74.9918 285.1255 15.06395226 86188
STARLINK-2175           
1 47757U 21017AM  22262.15418881 -.00001594  00000+0 -88141-4 0  9997
2 47757  53.0538 141.8037 0001412  81.0722 279.0427 15.06401713 86674
STARLINK-2178           
1 47760U 21017AQ  22262.98261236  .00003726  00000+0  26899-3 0  9990
2 47760  53.0541 148.0955 0001369  79.4414 280.6729 15.06384467 86039
STARLINK-2179           
1 47761U 21017AR  22262.94667111  .00000231  00000+0  34384-4 0  9996
2 47761  53.0541 138.2522 0001358  82.7037 277.4107 15.06400973 86177
STARLINK-2180           
1 47762U 21017AS  22263.10562669 -.00003910  00000+0 -24367-3 0  9996
2 47762  53.0543 152.5556 0001897  74.6951 285.4248 15.06409693 85980
STARLINK-2181           
1 47763U 21017AT  22263.05494975  .00003741  00000+0  26980-3 0  9998
2 47763  53.0520 142.7707 0001403  76.1270 283.9875 15.06412253 86110
STARLINK-2182           
1 47764U 21017AU  22263.09089043 -.00000971  00000+0 -46284-4 0  9993
2 47764  53.0534 152.6107 0001479  87.4182 272.6977 15.06391708 85983
STARLINK-2184           
1 47766U 21017AW  22263.10836525 -.00000229  00000+0  35477-5 0  9990
2 47766  53.0535 152.5160 0001516  65.4734 294.6413 15.06402254 85983
STARLINK-2185           
1 47767U 21017AX  22263.06830942  .00002382  00000+0  17875-3 0  9994
2 47767  53.0534 137.7087 0001690  75.9026 284.2151 15.06404241 86195
STARLINK-2189           
1 47768U 21017AY  22262.71127351  .00000860  00000+0  76607-4 0  9997
2 47768  53.0556 154.7055 0001693  90.0840 270.0343 15.06405101 86573
STARLINK-2192           
1 47769U 21017AZ  22263.05172371  .00001921  00000+0  14780-3 0  9990
2 47769  53.0556 117.7914 0001380  68.9247 291.1889 15.06397951 86465
STARLINK-2193           
1 47770U 21017BA  22262.66147235  .00002305  00000+0  17358-3 0  9990
2 47770  53.0524 134.5187 0001405  67.1457 292.9680 15.06400402 86850
STARLINK-2194           
1 47771U 21017BB  22262.73887936  .00001468  00000+0  11743-3 0  9999
2 47771  53.0554 134.1932 0001544  67.4096 292.7056 15.06398461 86872
STARLINK-2195           
1 47772U 21017BC  22262.66193211  .00000448  00000+0  49003-4 0  9996
2 47772  53.0537 149.5358 0001288  90.3414 269.7722 15.06394620 86620
STARLINK-2196           
1 47773U 21017BD  22262.65825121  .00001004  00000+0  86321-4 0  9991
2 47773  53.0547 149.5484 0001506  57.4536 302.6599 15.06395091 86615
STARLINK-2197           
1 47774U 21017BE  22262.78724713  .00001807  00000+0  14015-3 0  9992
2 47774  53.0530 148.9733 0001426  75.6103 284.5044 15.06407140 86646
STARLINK-2198           
1 47775U 21017BF  22263.06370161  .00000916  00000+0  80359-4 0  9994
2 47775  53.0551 147.7233 0001496  67.0717 293.0429 15.06403654 86058
STARLINK-2209           
1 47776U 21017BG  22262.69234697  .00000987  00000+0  85140-4 0  9997
2 47776  53.0546 139.3977 0001473  72.5728 287.5421 15.06399966 86783
STARLINK-2210           
1 47777U 21017BH  22262.76237859 -.00000366  00000+0 -56616-5 0  9999
2 47777  53.0521 139.0866 0001588  65.6259 294.4896 15.06395479 86799
STARLINK-2211           
1 47778U 21017BJ  22262.06573544  .00003349  00000+0  24367-3 0  9995
2 47778  53.0548 142.2016 0001331  76.2364 283.8773 15.06394825 86681
STARLINK-2212           
1 47779U 21017BK  22262.70710062  .00002158  00000+0  13990-3 0  9992
2 47779  53.0547 124.3236 0001331  84.5568 275.5575 15.12380666 86351
STARLINK-2213           
1 47780U 21017BL  22262.62231084  .00002156  00000+0  16363-3 0  9992
2 47780  53.0547 139.6946 0001550  75.1812 284.9348 15.06397995 86809
STARLINK-2223           
1 47781U 21017BM  22262.78816183  .00002437  00000+0  18239-3 0  9995
2 47781  53.0549 138.9505 0001225  81.1345 278.9783 15.06408340 86142
STARLINK-2257           
1 47787U 21018A   22263.07199092 -.00002784  00000+0 -16802-3 0  9999
2 47787  53.0550 177.6830 0001377  91.6788 268.4359 15.06407666 85340
STARLINK-2314           
1 47788U 21018B   22263.08351631  .00001103  00000+0  92938-4 0  9997
2 47788  53.0546 152.6430 0001604  64.1754 295.9400 15.06394551 85706
STARLINK-2315           
1 47789U 21018C   22263.13280722 -.00000158  00000+0  82917-5 0  9993
2 47789  53.0546 157.4238 0001277  87.0435 273.0700 15.06397649 85635
STARLINK-2319           
1 47790U 21018D   22262.70984664  .00000554  00000+0  56102-4 0  9998
2 47790  53.0545 149.3154 0001382  84.5381 275.5765 15.06402608 86060
STARLINK-2322           
1 47791U 21018E   22262.79554324  .00003643  00000+0  26332-3 0  9997
2 47791  53.0528 178.9182 0001252  79.9115 280.2015 15.06406061 85652
STARLINK-2334           
1 47792U 21018F   22263.00748809  .00000763  00000+0  70131-4 0  9993
2 47792  53.0550 157.9874 0001516  63.7775 296.3370 15.06403439 85613
STARLINK-2338           
1 47793U 21018G   22262.15972434  .00003416  00000+0  24811-3 0  9993
2 47793  53.0549 161.7939 0001557  79.2420 280.8744 15.06401279 85827
STARLINK-2341           
1 47794U 21018H   22263.09228361  .00000683  00000+0  64740-4 0  9990
2 47794  53.0549 157.6078 0001617  76.7152 283.4017 15.06392301 85622
STARLINK-2347           
1 47795U 21018J   22263.14755584 -.00000684  00000+0 -27052-4 0  9997
2 47795  53.0550 157.3599 0001345  88.1761 271.9382 15.06396002 85631
STARLINK-2373           
1 47796U 21018K   22263.09592572  .00002030  00000+0  15505-3 0  9992
2 47796  53.0535 157.5787 0000609  87.7575 272.3484 15.06414358 85628
STARLINK-2377           
1 47797U 21018L   22263.06600233  .00010793  00000+0  74337-3 0  9997
2 47797  53.0568 182.7228 0001592  97.9798 262.1371 15.06350048 85275
STARLINK-2379           
1 47798U 21018M   22262.70893201  .00003524  00000+0  25528-3 0  9999
2 47798  53.0541 159.3279 0001330  78.4986 281.6152 15.06406190 85561
STARLINK-2380           
1 47799U 21018N   22263.03697255  .00003223  00000+0  23513-3 0  9996
2 47799  53.0528 157.8379 0001408  74.8381 285.2764 15.06402995 85610
STARLINK-2381           
1 47800U 21018P   22262.79370386  .00007892  00000+0  54775-3 0  9994
2 47800  53.0559 158.9455 0001023  44.6188 315.4883 15.06425627 85588
STARLINK-2382           
1 47801U 21018Q   22263.02731742 -.00000014  00000+0  17952-4 0  9996
2 47801  53.0555 162.9686 0001513  71.7480 288.3674 15.06390882 85542
STARLINK-2383           
1 47802U 21018R   22263.00703173 -.00001167  00000+0 -59454-4 0  9996
2 47802  53.0554 182.9735 0001356  90.9545 269.1599 15.06388639 85268
STARLINK-2384           
1 47803U 21018S   22262.80475923 -.00000682  00000+0 -26880-4 0  9991
2 47803  53.0533 158.8977 0001389  94.6851 265.4296 15.06396389 85582
STARLINK-2385           
1 47804U 21018T   22263.08489748  .00000414  00000+0  46664-4 0  9996
2 47804  53.0536 157.6405 0001314  73.3856 286.7277 15.06402031 85628
STARLINK-2386           
1 47805U 21018U   22263.11810030  .00000885  00000+0  78311-4 0  9999
2 47805  53.0539 157.7289 0001232 101.5855 258.5272 15.06398234 85626
STARLINK-2387           
1 47806U 21018V   22263.12221149  .00002354  00000+0  17685-3 0  9997
2 47806  53.0534 172.4752 0001545  72.3153 287.8004 15.06402245 85428
STARLINK-2388           
1 47807U 21018W   22263.11162298 -.00001005  00000+0 -48621-4 0  9995
2 47807  53.0559 147.5187 0000293 112.6165 247.4855 15.06391213 85766
STARLINK-2389           
1 47808U 21018X   22263.14064791  .00001120  00000+0  94106-4 0  9993
2 47808  53.0548 172.3879 0001563  75.9962 284.1201 15.06389910 85423
STARLINK-2390           
1 47809U 21018Y   22262.48129853 -.00000435  00000+0 -10280-4 0  9992
2 47809  53.0531 180.3379 0001806  65.2332 294.8844 15.06402802 85251
STARLINK-2391           
1 47810U 21018Z   22263.17059295  .00001241  00000+0  10217-3 0  9996
2 47810  53.0536 187.2478 0001480  84.4262 275.6895 15.06399825 85216
STARLINK-2392           
1 47811U 21018AA  22263.14386650  .00003431  00000+0  24900-3 0  9999
2 47811  53.0536 157.3716 0001230  60.6994 299.4118 15.06414646 85638
STARLINK-2393           
1 47812U 21018AB  22263.04895748  .00000908  00000+0  79893-4 0  9990
2 47812  53.0538 187.7889 0001497  64.1679 295.9465 15.06391940 85191
STARLINK-2394           
1 47813U 21018AC  22262.70155978  .00003281  00000+0  23904-3 0  9995
2 47813  53.0548 159.3635 0001462  89.6425 270.4732 15.06405290 85964
STARLINK-2395           
1 47814U 21018AD  22262.92455352  .00005535  00000+0  39006-3 0  9993
2 47814  53.0526 178.3508 0001503  73.4629 286.6525 15.06410423 85338
STARLINK-2396           
1 47815U 21018AE  22262.16018058  .00002471  00000+0  18471-3 0  9997
2 47815  53.0552 176.7817 0001607  69.2956 290.8205 15.06398864 85611
STARLINK-2399           
1 47816U 21018AF  22263.16413685  .00002423  00000+0  18143-3 0  9997
2 47816  53.0530 177.2723 0001370  96.8302 263.2843 15.06411906 85365
STARLINK-2400           
1 47817U 21018AG  22263.11624345  .00000077  00000+0  24052-4 0  9990
2 47817  53.0524 177.4988 0001623  70.4384 289.6780 15.06406100 85354
STARLINK-2401           
1 47818U 21018AH  22263.14246122  .00000568  00000+0  57042-4 0  9997
2 47818  53.0551 182.3582 0001141  85.9107 274.2013 15.06394473 85290
STARLINK-2402           
1 47819U 21018AJ  22262.78722630  .00000522  00000+0  53921-4 0  9992
2 47819  53.0550 178.9546 0001624  68.5553 291.5609 15.06400543 85704
STARLINK-2403           
1 47820U 21018AK  22262.83516847  .00001362  00000+0  11033-3 0  9991
2 47820  53.0553 188.7614 0001352  85.2293 274.8850 15.06402442 85172
